{
    "links": {
        "self": "http://www.neowsapp.com/rest/v1/neo/3795031?api_key=iIulBulltgU6a56xZRHN4H3l9WmuAYTsLGpBGhQ2"
    },
    "id": "3795031",
    "neo_reference_id": "3795031",
    "name": "(2017 YT3)",
    "designation": "2017 YT3",
    "nasa_jpl_url": "http://ssd.jpl.nasa.gov/sbdb.cgi?sstr=3795031",
    "absolute_magnitude_h": 23.7,
    "estimated_diameter": {
        "kilometers": {
            "estimated_diameter_min": 0.0483676488,
            "estimated_diameter_max": 0.1081533507
        },
        "meters": {
            "estimated_diameter_min": 48.3676488219,
            "estimated_diameter_max": 108.1533506775
        },
        "miles": {
            "estimated_diameter_min": 0.0300542543,
            "estimated_diameter_max": 0.0672033557
        },
        "feet": {
            "estimated_diameter_min": 158.6865169607,
            "estimated_diameter_max": 354.8338390368
        }
    },
    "is_potentially_hazardous_asteroid": false,
    "close_approach_data": [
        {
            "close_approach_date": "2018-01-07",
            "close_approach_date_full": "2018-Jan-07 20:46",
            "epoch_date_close_approach": 1515357960000,
            "relative_velocity": {
                "kilometers_per_second": "10.893786995",
                "kilometers_per_hour": "39217.6331818639",
                "miles_per_hour": "24368.3121290309"
            },
            "miss_distance": {
                "astronomical": "0.0943701419",
                "lunar": "36.7099851991",
                "kilometers": "14117572.219837753",
                "miles": "8772252.6026488714"
            },
            "orbiting_body": "Earth"
        }
    ],
    "orbital_data": {
        "orbit_id": "3",
        "orbit_determination_date": "2017-12-31 06:21:57",
        "first_observation_date": "2017-12-23",
        "last_observation_date": "2017-12-31",
        "data_arc_in_days": 8,
        "observations_used": 36,
        "orbit_uncertainty": "8",
        "minimum_orbit_intersection": ".093806",
        "jupiter_tisserand_invariant": "3.378",
        "epoch_osculation": "2458111.5",
        "eccentricity": ".5865778157250754",
        "semi_major_axis": "2.237482716018268",
        "inclination": "7.62536042893946",
        "ascending_node_longitude": "243.7693295832676",
        "orbital_period": "1222.469297750727",
        "perihelion_distance": ".9250249917336631",
        "perihelion_argument": "262.2599172366793",
        "aphelion_distance": "3.549940440302872",
        "perihelion_time": "2458156.056315925221",
        "mean_anomaly": "346.8787921605943",
        "mean_motion": ".2944859234194095",
        "equinox": "J2000",
        "orbit_class": {
            "orbit_class_type": "APO",
            "orbit_class_description": "Near-Earth asteroid orbits which cross the Earth’s orbit similar to that of 1862 Apollo",
            "orbit_class_range": "a (semi-major axis) > 1.0 AU; q (perihelion) < 1.017 AU"
        }
    },
    "is_sentry_object": false
}